STARLINK-32268          
1 60372U 24138T   26068.88691969 -.00004669  00000+0 -14555-3 0  9993
2 60372  53.1601 308.9853 0001000  81.4408 278.6706 15.30215525 90653
BANDWAGON-2 OBJECT D    
1 62380U 24247D   26068.52261193  .00011259  00000+0  40119-3 0  9994
2 62380  44.9954 115.6710 0003488 351.1453   8.9368 15.29076102 67732
